{
    "links": {
        "self": "http://www.neowsapp.com/rest/v1/neo/3797497?api_key=iIulBulltgU6a56xZRHN4H3l9WmuAYTsLGpBGhQ2"
    },
    "id": "3797497",
    "neo_reference_id": "3797497",
    "name": "(2018 AA4)",
    "designation": "2018 AA4",
    "nasa_jpl_url": "http://ssd.jpl.nasa.gov/sbdb.cgi?sstr=3797497",
    "absolute_magnitude_h": 25.9,
    "estimated_diameter": {
        "kilometers": {
            "estimated_diameter_min": 0.0175612318,
            "estimated_diameter_max": 0.0392681082
        },
        "meters": {
            "estimated_diameter_min": 17.561231848,
            "estimated_diameter_max": 39.2681081809
        },
        "miles": {
            "estimated_diameter_min": 0.0109120402,
            "estimated_diameter_max": 0.0244000636
        },
        "feet": {
            "estimated_diameter_min": 57.6155918963,
            "estimated_diameter_max": 128.8323800441
        }
    },
    "is_potentially_hazardous_asteroid": false,
    "close_approach_data": [
        {
            "close_approach_date": "2018-01-10",
            "close_approach_date_full": "2018-Jan-10 03:30",
            "epoch_date_close_approach": 1515555000000,
            "relative_velocity": {
                "kilometers_per_second": "10.6078323847",
                "kilometers_per_hour": "38188.1965847562",
                "miles_per_hour": "23728.6602612337"
            },
            "miss_distance": {
                "astronomical": "0.0090669661",
                "lunar": "3.5270498129",
                "kilometers": "1356398.815922207",
                "miles": "842827.1418001766"
            },
            "orbiting_body": "Earth"
        },
        {
            "close_approach_date": "2019-11-25",
            "close_approach_date_full": "2019-Nov-25 10:27",
            "epoch_date_close_approach": 1574677620000,
            "relative_velocity": {
                "kilometers_per_second": "5.0836484277",
                "kilometers_per_hour": "18301.1343398776",
                "miles_per_hour": "11371.6131680201"
            },
            "miss_distance": {
                "astronomical": "1.7051786164",
                "lunar": "663.3144817796",
                "kilometers": "255091088.982987068",
                "miles": "158506252.6614268184"
            },
            "orbiting_body": "Juptr"
        },
        {
            "close_approach_date": "2021-10-08",
            "close_approach_date_full": "2021-Oct-08 05:47",
            "epoch_date_close_approach": 1633672020000,
            "relative_velocity": {
                "kilometers_per_second": "21.5269293152",
                "kilometers_per_hour": "77496.9455347711",
                "miles_per_hour": "48153.5881852026"
            },
            "miss_distance": {
                "astronomical": "0.3924314644",
                "lunar": "152.6558396516",
                "kilometers": "58706911.195220828",
                "miles": "36478783.0730623064"
            },
            "orbiting_body": "Earth"
        }
    ],
    "orbital_data": {
        "orbit_id": "5",
        "orbit_determination_date": "2018-01-29 06:51:53",
        "first_observation_date": "2018-01-13",
        "last_observation_date": "2018-01-28",
        "data_arc_in_days": 15,
        "observations_used": 66,
        "orbit_uncertainty": "7",
        "minimum_orbit_intersection": ".0113972",
        "jupiter_tisserand_invariant": "3.185",
        "epoch_osculation": "2459000.5",
        "eccentricity": ".6171088977515536",
        "semi_major_axis": "2.476840942108987",
        "inclination": "3.501249439742874",
        "ascending_node_longitude": "114.8328181874582",
        "orbital_period": "1423.788903162772",
        "perihelion_distance": ".9483603584181904",
        "perihelion_argument": "323.5130310802718",
        "aphelion_distance": "4.005321525799784",
        "perihelion_time": "2459528.243409915397",
        "mean_anomaly": "226.561941066187",
        "mean_motion": ".252846471271341",
        "equinox": "J2000",
        "orbit_class": {
            "orbit_class_type": "APO",
            "orbit_class_description": "Near-Earth asteroid orbits which cross the Earth’s orbit similar to that of 1862 Apollo",
            "orbit_class_range": "a (semi-major axis) > 1.0 AU; q (perihelion) < 1.017 AU"
        }
    },
    "is_sentry_object": false
}